[{"OBJECT_NAME":"STARLINK-31716","OBJECT_ID":"2024-062D","EPOCH":"2026-03-09T16:07:16.130208","MEAN_MOTION":15.30192908,"ECCENTRICITY":9.294e-5,"INCLINATION":53.1595,"RA_OF_ASC_NODE":207.098,"ARG_OF_PERICENTER":87.9131,"MEAN_ANOMALY":272.1976,"EPHEMERIS_TYPE":0,"CLASSIFICATION_TYPE":"U","NORAD_CAT_ID":59377,"ELEMENT_SET_NO":999,"REV_AT_EPOCH":11030,"BSTAR":5.134487e-6,"MEAN_MOTION_DOT":-2.07e-6,"MEAN_MOTION_DDOT":0},{"OBJECT_NAME":"KUIPER-00184","OBJECT_ID":"2025-301G","EPOCH":"2026-03-09T22:00:01.999584","MEAN_MOTION":15.32782365,"ECCENTRICITY":0.00116958,"INCLINATION":51.8667,"RA_OF_ASC_NODE":64.5953,"ARG_OF_PERICENTER":53.2996,"MEAN_ANOMALY":333.7065,"EPHEMERIS_TYPE":0,"CLASSIFICATION_TYPE":"U","NORAD_CAT_ID":67139,"ELEMENT_SET_NO":999,"REV_AT_EPOCH":554,"BSTAR":-0.036844053,"MEAN_MOTION_DOT":-0.01088594,"MEAN_MOTION_DDOT":0}]
